{"fetched_at":"2026-07-24T07:06:08.057Z","source":"https://celestrak.org/NORAD/elements/gp.php?GROUP=oneweb&FORMAT=JSON","constellation":"oneweb","records":[{"OBJECT_NAME":"ONEWEB-0545","OBJECT_ID":"2022-166F","EPOCH":"2026-07-23T12:35:04.428384","CLASSIFICATION_TYPE":"U","MEAN_MOTION":13.21835184,"ECCENTRICITY":0.0001602,"INCLINATION":87.9226,"RA_OF_ASC_NODE":236.7493,"ARG_OF_PERICENTER":98.9186,"MEAN_ANOMALY":261.2129,"EPHEMERIS_TYPE":0,"NORAD_CAT_ID":54647,"ELEMENT_SET_NO":999,"REV_AT_EPOCH":17630,"BSTAR":-0.0034712,"MEAN_MOTION_DOT":-0.00001421,"MEAN_MOTION_DDOT":0},{"OBJECT_NAME":"ONEWEB-0580","OBJECT_ID":"2022-166G","EPOCH":"2026-07-23T02:53:45.008448","CLASSIFICATION_TYPE":"U","MEAN_MOTION":13.21819142,"ECCENTRICITY":0.00016387,"INCLINATION":87.9225,"RA_OF_ASC_NODE":236.829,"ARG_OF_PERICENTER":90.3007,"MEAN_ANOMALY":269.8315,"EPHEMERIS_TYPE":0,"NORAD_CAT_ID":54648,"ELEMENT_SET_NO":999,"REV_AT_EPOCH":17629,"BSTAR":0.0021414641,"MEAN_MOTION_DOT":0.00000897,"MEAN_MOTION_DDOT":0},{"OBJECT_NAME":"ONEWEB-0582","OBJECT_ID":"2022-166H","EPOCH":"2026-07-23T03:54:17.747424","CLASSIFICATION_TYPE":"U","MEAN_MOTION":13.21823802,"ECCENTRICITY":0.0001556,"INCLINATION":87.9232,"RA_OF_ASC_NODE":236.8137,"ARG_OF_PERICENTER":95.2892,"MEAN_ANOMALY":264.8419,"EPHEMERIS_TYPE":0,"NORAD_CAT_ID":54649,"ELEMENT_SET_NO":999,"REV_AT_EPOCH":17627,"BSTAR":-0.00020909,"MEAN_MOTION_DOT":-7.3e-7,"MEAN_MOTION_DDOT":0},{"OBJECT_NAME":"ONEWEB-0583","OBJECT_ID":"2022-166J","EPOCH":"2026-07-23T07:49:16.796640","CLASSIFICATION_TYPE":"U","MEAN_MOTION":13.2182563,"ECCENTRICITY":0.0001903,"INCLINATION":87.923,"RA_OF_ASC_NODE":236.8045,"ARG_OF_PERICENTER":95.1813,"MEAN_ANOMALY":264.9538,"EPHEMERIS_TYPE":0,"NORAD_CAT_ID":54650,"ELEMENT_SET_NO":999,"REV_AT_EPOCH":17630,"BSTAR":-0.000017699,"MEAN_MOTION_DOT":6e-8,"MEAN_MOTION_DDOT":0},{"OBJECT_NAME":"ONEWEB-0584","OBJECT_ID":"2022-166K","EPOCH":"2026-07-23T02:51:19.811520","CLASSIFICATION_TYPE":"U","MEAN_MOTION":13.21824927,"ECCENTRICITY":0.00020071,"INCLINATION":87.9225,"RA_OF_ASC_NODE":236.8302,"ARG_OF_PERICENTER":93.2054,"MEAN_ANOMALY":266.931,"EPHEMERIS_TYPE":0,"NORAD_CAT_ID":54651,"ELEMENT_SET_NO":999,"REV_AT_EPOCH":17626,"BSTAR":0.00023283814,"MEAN_MOTION_DOT":0.00000109,"MEAN_MOTION_DDOT":0},{"OBJECT_NAME":"ONEWEB-0585","OBJECT_ID":"2022-166L","EPOCH":"2026-07-23T08:52:14.744640","CLASSIFICATION_TYPE":"U","MEAN_MOTION":13.21823798,"ECCENTRICITY":0.0002217,"INCLINATION":87.9232,"RA_OF_ASC_NODE":236.7688,"ARG_OF_PERICENTER":95.1484,"MEAN_ANOMALY":264.9903,"EPHEMERIS_TYPE":0,"NORAD_CAT_ID":54652,"ELEMENT_SET_NO":999,"REV_AT_EPOCH":17630,"BSTAR":-0.00012149,"MEAN_MOTION_DOT":-3.7e-7,"MEAN_MOTION_DDOT":0},{"OBJECT_NAME":"ONEWEB-0586","OBJECT_ID":"2022-166M","EPOCH":"2026-07-23T03:44:37.187808","CLASSIFICATION_TYPE":"U","MEAN_MOTION":13.21824533,"ECCENTRICITY":0.0001888,"INCLINATION":87.9224,"RA_OF_ASC_NODE":236.8357,"ARG_OF_PERICENTER":100.5951,"MEAN_ANOMALY":259.5396,"EPHEMERIS_TYPE":0,"NORAD_CAT_ID":54653,"ELEMENT_SET_NO":999,"REV_AT_EPOCH":17627,"BSTAR":-0.000013269,"MEAN_MOTION_DOT":8e-8,"MEAN_MOTION_DDOT":0},{"OBJECT_NAME":"ONEWEB-0587","OBJECT_ID":"2022-166N","EPOCH":"2026-07-23T13:04:10.766784","CLASSIFICATION_TYPE":"U","MEAN_MOTION":13.21826274,"ECCENTRICITY":0.0002414,"INCLINATION":87.9239,"RA_OF_ASC_NODE":236.736,"ARG_OF_PERICENTER":94.6653,"MEAN_ANOMALY":265.4756,"EPHEMERIS_TYPE":0,"NORAD_CAT_ID":54654,"ELEMENT_SET_NO":999,"REV_AT_EPOCH":17648,"BSTAR":-0.000053592,"MEAN_MOTION_DOT":-9e-8,"MEAN_MOTION_DDOT":0},{"OBJECT_NAME":"ONEWEB-0589","OBJECT_ID":"2022-166P","EPOCH":"2026-07-23T03:39:47.109312","CLASSIFICATION_TYPE":"U","MEAN_MOTION":13.21825173,"ECCENTRICITY":0.0001191,"INCLINATION":87.9227,"RA_OF_ASC_NODE":236.8217,"ARG_OF_PERICENTER":87.7709,"MEAN_ANOMALY":272.3561,"EPHEMERIS_TYPE":0,"NORAD_CAT_ID":54655,"ELEMENT_SET_NO":999,"REV_AT_EPOCH":17629,"BSTAR":0.000015562,"MEAN_MOTION_DOT":1.9e-7,"MEAN_MOTION_DDOT":0},{"OBJECT_NAME":"ONEWEB-0590","OBJECT_ID":"2022-166Q","EPOCH":"2026-07-23T02:26:53.442816","CLASSIFICATION_TYPE":"U","MEAN_MOTION":13.21826598,"ECCENTRICITY":0.00021186,"INCLINATION":87.9236,"RA_OF_ASC_NODE":236.8254,"ARG_OF_PERICENTER":82.6223,"MEAN_ANOMALY":277.5152,"EPHEMERIS_TYPE":0,"NORAD_CAT_ID":54656,"ELEMENT_SET_NO":999,"REV_AT_EPOCH":17627,"BSTAR":0.000022140579,"MEAN_MOTION_DOT":2.2e-7,"MEAN_MOTION_DDOT":0},{"OBJECT_NAME":"ONEWEB-0591","OBJECT_ID":"2022-166R","EPOCH":"2026-07-23T08:11:03.486048","CLASSIFICATION_TYPE":"U","MEAN_MOTION":13.21823636,"ECCENTRICITY":0.0001996,"INCLINATION":87.9225,"RA_OF_ASC_NODE":236.7892,"ARG_OF_PERICENTER":92.8546,"MEAN_ANOMALY":267.2816,"EPHEMERIS_TYPE":0,"NORAD_CAT_ID":54657,"ELEMENT_SET_NO":999,"REV_AT_EPOCH":17633,"BSTAR":-0.000093394,"MEAN_MOTION_DOT":-2.6e-7,"MEAN_MOTION_DDOT":0},{"OBJECT_NAME":"ONEWEB-0592","OBJECT_ID":"2022-166S","EPOCH":"2026-07-23T02:48:54.575712","CLASSIFICATION_TYPE":"U","MEAN_MOTION":13.21824825,"ECCENTRICITY":0.00020746,"INCLINATION":87.9233,"RA_OF_ASC_NODE":236.8152,"ARG_OF_PERICENTER":95.6415,"MEAN_ANOMALY":264.4956,"EPHEMERIS_TYPE":0,"NORAD_CAT_ID":54658,"ELEMENT_SET_NO":999,"REV_AT_EPOCH":17618,"BSTAR":0.00015564195,"MEAN_MOTION_DOT":7.7e-7,"MEAN_MOTION_DDOT":0},{"OBJECT_NAME":"ONEWEB-0593","OBJECT_ID":"2022-166T","EPOCH":"2026-07-23T12:25:24.413952","CLASSIFICATION_TYPE":"U","MEAN_MOTION":13.21826505,"ECCENTRICITY":0.0001929,"INCLINATION":87.9228,"RA_OF_ASC_NODE":236.7446,"ARG_OF_PERICENTER":98.1731,"MEAN_ANOMALY":261.9622,"EPHEMERIS_TYPE":0,"NORAD_CAT_ID":54659,"ELEMENT_SET_NO":999,"REV_AT_EPOCH":17634,"BSTAR":0.00015181,"MEAN_MOTION_DOT":7.6e-7,"MEAN_MOTION_DDOT":0},{"OBJECT_NAME":"ONEWEB-0594","OBJECT_ID":"2022-166U","EPOCH":"2026-07-23T09:16:28.568928","CLASSIFICATION_TYPE":"U","MEAN_MOTION":13.2182465,"ECCENTRICITY":0.0002205,"INCLINATION":87.9227,"RA_OF_ASC_NODE":236.7867,"ARG_OF_PERICENTER":97.3002,"MEAN_ANOMALY":262.8383,"EPHEMERIS_TYPE":0,"NORAD_CAT_ID":54660,"ELEMENT_SET_NO":999,"REV_AT_EPOCH":17634,"BSTAR":-0.000013476,"MEAN_MOTION_DOT":7e-8,"MEAN_MOTION_DDOT":0},{"OBJECT_NAME":"ONEWEB-0595","OBJECT_ID":"2022-166V","EPOCH":"2026-07-23T12:20:34.558368","CLASSIFICATION_TYPE":"U","MEAN_MOTION":13.21825843,"ECCENTRICITY":0.0002294,"INCLINATION":87.9234,"RA_OF_ASC_NODE":236.7446,"ARG_OF_PERICENTER":92.8135,"MEAN_ANOMALY":267.3262,"EPHEMERIS_TYPE":0,"NORAD_CAT_ID":54661,"ELEMENT_SET_NO":999,"REV_AT_EPOCH":17633,"BSTAR":0.00016471,"MEAN_MOTION_DOT":8.1e-7,"MEAN_MOTION_DDOT":0},{"OBJECT_NAME":"ONEWEB-0596","OBJECT_ID":"2022-166W","EPOCH":"2026-07-23T02:39:13.089888","CLASSIFICATION_TYPE":"U","MEAN_MOTION":13.21824384,"ECCENTRICITY":0.00021403,"INCLINATION":87.9228,"RA_OF_ASC_NODE":236.8343,"ARG_OF_PERICENTER":94.7046,"MEAN_ANOMALY":265.4332,"EPHEMERIS_TYPE":0,"NORAD_CAT_ID":54662,"ELEMENT_SET_NO":999,"REV_AT_EPOCH":17628,"BSTAR":0.000070790757,"MEAN_MOTION_DOT":4.2e-7,"MEAN_MOTION_DDOT":0}]}
